     2.100          NAVIGATION                              RINEX VERSION / TYPE
fic2rin                                 10/30/2011 02:05:06 PGM / RUN BY / DATE
                                                            END OF HEADER
 5 11 10 29  1 59 44.0 -.237961299717D-03 -.500222085975D-11  .000000000000D+00
     .700000000000D+01  .103187500000D+03  .448340103736D-08  .293116309091D+01
     .545755028725D-05  .257172260899D-02  .112522393465D-04  .515379435730D+04
     .525584000000D+06 -.391155481339D-07 -.258358183205D+01 -.558793544769D-08
     .953158547222D+00  .159937500000D+03  .176008890883D+00 -.787068498848D-08
    -.421446126351D-10  .100000000000D+01  .165900000000D+04  .000000000000D+00
     .240000000000D+01  .000000000000D+00 -.102445483208D-07  .700000000000D+01
     .518406000000D+06  .400000000000D+01
 1 11 10 29  2  0  0.0  .599580816925D-04  .250111042988D-10  .000000000000D+00
     .360000000000D+02 -.273437500000D+02  .479734268572D-08 -.122036676789D+01
    -.138767063618D-05  .448161154054D-03  .793486833572D-05  .515365618706D+04
     .525600000000D+06  .316649675369D-07  .264679090007D+01 -.335276126862D-07
     .960369745883D+00  .226937500000D+03  .139220935001D+01 -.803497754621D-08
    -.495377777330D-09  .100000000000D+01  .165900000000D+04  .000000000000D+00
     .240000000000D+01  .000000000000D+00  .791624188423D-08  .360000000000D+02
     .518406000000D+06  .400000000000D+01
 2 11 10 29  2  0  0.0  .363000202924D-03  .181898940355D-11  .000000000000D+00
     .790000000000D+02 -.318750000000D+02  .531307845390D-08  .933988794942D+00
    -.169686973095D-05  .105738259153D-01  .780634582043D-05  .515358577728D+04
     .525600000000D+06 -.745058059692D-08  .263764516049D+01  .173225998878D-06
     .938948779191D+00  .219062500000D+03 -.291983490138D+01 -.839177812267D-08
    -.585381526347D-09  .100000000000D+01  .165900000000D+04  .000000000000D+00
     .240000000000D+01  .000000000000D+00 -.176951289177D-07  .790000000000D+02
     .518406000000D+06  .400000000000D+01
 3 11 10 29  2  0  0.0  .787600874901D-03  .511590769747D-11  .000000000000D+00
     .117000000000D+03  .176562500000D+02  .556273171010D-08  .109435478326D+01
     .879168510437D-06  .148942625383D-01  .715814530849D-05  .515367481613D+04
     .525600000000D+06 -.204890966415D-06  .147678681184D+01  .186264514923D-07
     .929303277532D+00  .228437500000D+03  .115176820141D+01 -.869214777713D-08
     .478234206089D-09  .100000000000D+01  .165900000000D+04  .000000000000D+00
     .240000000000D+01  .000000000000D+00 -.465661287308D-08  .117000000000D+03
     .518406000000D+06  .400000000000D+01
 4 11 10 29  2  0  0.0  .274446792901D-03  .112549969344D-10  .000000000000D+00
     .106000000000D+03 -.383437500000D+02  .525521890096D-08 -.216212626915D+01
    -.230409204960D-05  .994815898594D-02  .751204788685D-05  .515372495461D+04
     .525600000000D+06  .121071934700D-06  .265480850014D+01 -.800937414169D-07
     .938042309799D+00  .217531250000D+03  .788164471265D+00 -.823320008869D-08
    -.373586989969D-09  .100000000000D+01  .165900000000D+04  .000000000000D+00
     .340000000000D+01  .000000000000D+00 -.651925802231D-08  .106000000000D+03
     .518406000000D+06  .400000000000D+01
 6 11 10 29  2  0  0.0 -.410568900406D-04  .659383658785D-11  .000000000000D+00
     .540000000000D+02  .215937500000D+02  .533450791795D-08  .306394300710D+01
     .114552676678D-05  .667539448477D-02  .619329512119D-05  .515369555092D+04
     .525600000000D+06  .223517417908D-07  .155173904219D+01  .104308128357D-06
     .936305850908D+00  .243968750000D+03 -.658800269836D+00 -.829641700764D-08
     .535379443560D-09  .100000000000D+01  .165900000000D+04  .000000000000D+00
     .340000000000D+01  .000000000000D+00 -.512227416039D-08  .540000000000D+02
     .518406000000D+06  .400000000000D+01
 7 11 10 29  2  0  0.0  .342833809555D-04  .204636307899D-11  .000000000000D+00
     .750000000000D+02 -.119375000000D+03  .427089218552D-08 -.582108572827D+00
    -.638701021671D-05  .508349016309D-02  .388547778130D-05  .515363229561D+04
     .525600000000D+06  .186264514923D-06 -.475218630329D+00 -.130385160446D-07
     .975412026946D+00  .313437500000D+03 -.304109881422D+01 -.818641242551D-08
    -.451090218290D-09  .100000000000D+01  .165900000000D+04  .000000000000D+00
     .240000000000D+01  .000000000000D+00 -.111758708954D-07  .750000000000D+02
     .518406000000D+06  .400000000000D+01
 8 11 10 29  2  0  0.0  .358559191227D-07  .000000000000D+00  .000000000000D+00
     .102000000000D+03 -.123812500000D+03  .368336771276D-08 -.109543392088D+01
    -.658817589283D-05  .121593591757D-01  .474974513054D-05  .515374082947D+04
     .525600000000D+06  .139698386192D-06 -.396448997166D+00 -.266358256340D-06
     .997367399076D+00  .305593750000D+03 -.301194295785D+01 -.780568228086D-08
    -.316084594764D-09  .100000000000D+01  .165900000000D+04  .000000000000D+00
     .240000000000D+01  .000000000000D+00 -.419095158577D-08  .102000000000D+03
     .518406000000D+06  .400000000000D+01
 9 11 10 29  2  0  0.0  .114776194096D-03  .238742359215D-11  .000000000000D+00
     .180000000000D+02 -.121156250000D+03  .419338895720D-08 -.125461899930D+01
    -.611320137978D-05  .171875585802D-01  .469386577606D-05  .515365449142D+04
     .525600000000D+06 -.270083546638D-06 -.502504479489D+00  .305473804474D-06
     .984230630254D+00  .299375000000D+03  .160134721746D+01 -.823748598150D-08
    -.442518432669D-09  .100000000000D+01  .165900000000D+04  .000000000000D+00
     .240000000000D+01  .000000000000D+00 -.558793544769D-08  .180000000000D+02
     .518406000000D+06  .400000000000D+01
10 11 10 29  2  0  0.0 -.175111927092D-04 -.102318153949D-11  .000000000000D+00
     .630000000000D+02  .101781250000D+03  .454054627483D-08 -.304507249179D+01
     .512227416039D-05  .106594380923D-01  .119786709547D-04  .515364914322D+04
     .525600000000D+06 -.353902578354D-07 -.256080004287D+01 -.143423676491D-06
     .948063463952D+00  .142906250000D+03  .710799020021D+00 -.778532429001D-08
    -.314298806093D-10  .100000000000D+01  .165900000000D+04  .000000000000D+00
     .240000000000D+01  .000000000000D+00 -.279396772385D-08  .630000000000D+02
     .518406000000D+06  .400000000000D+01
11 11 10 29  2  0  0.0 -.198971945792D-03 -.352429196937D-11  .000000000000D+00
     .720000000000D+02 -.269687500000D+02  .677063916716D-08 -.399535109167D+00
    -.126473605633D-05  .125436930684D-01  .556372106075D-05  .515365797806D+04
     .525600000000D+06  .130385160446D-07  .239243459320D+01  .176951289177D-06
     .887874448403D+00  .235656250000D+03  .991744388169D+00 -.928467245816D-08
    -.278583032673D-09  .100000000000D+01  .165900000000D+04  .000000000000D+00
     .240000000000D+01  .000000000000D+00 -.116415321827D-07  .720000000000D+02
     .518406000000D+06  .400000000000D+01
12 11 10 29  2  0  0.0  .313688069582D-04  .227373675443D-11  .000000000000D+00
     .800000000000D+01 -.516562500000D+02  .382623080644D-08 -.755155496400D+00
    -.274553894997D-05  .356672401540D-02  .122990459204D-04  .515363973618D+04
     .525600000000D+06  .726431608200D-07  .579629652290D+00 -.152736902237D-06
     .977330341183D+00  .154218750000D+03 -.695063378694D-01 -.757138680722D-08
     .285726187357D-09  .100000000000D+01  .165900000000D+04  .000000000000D+00
     .240000000000D+01  .000000000000D+00 -.121071934700D-07  .800000000000D+01
     .518406000000D+06  .400000000000D+01
13 11 10 29  2  0  0.0  .244278460741D-03 -.193267624127D-11  .000000000000D+00
     .470000000000D+02  .832812500000D+02  .421910431406D-08  .186326657966D+01
     .416859984398D-05  .457704765722D-02  .136531889439D-05  .515376283646D+04
     .525600000000D+06 -.279396772385D-07 -.144832384027D+01 -.875443220139D-07
     .987766560305D+00  .361937500000D+03  .195377022022D+01 -.820962767823D-08
     .960754304987D-10  .100000000000D+01  .165900000000D+04  .000000000000D+00
     .340000000000D+01  .000000000000D+00 -.116415321827D-07  .470000000000D+02
     .518406000000D+06  .400000000000D+01
14 11 10 29  2  0  0.0  .178864225745D-03  .159161572810D-11  .000000000000D+00
     .530000000000D+02  .795937500000D+02  .438339687179D-08  .190340912637D+01
     .398233532906D-05  .631359172985D-02  .104680657387D-05  .515373196602D+04
     .525600000000D+06 -.875443220139D-07 -.147358802881D+01 -.191852450371D-06
     .980720320286D+00  .371500000000D+03 -.207119007443D+01 -.832713257278D-08
     .172150027883D-09  .100000000000D+01  .165900000000D+04  .000000000000D+00
     .240000000000D+01  .000000000000D+00 -.884756445885D-08  .530000000000D+02
     .518406000000D+06  .400000000000D+01
15 11 10 29  2  0  0.0 -.101034063846D-03  .125055521494D-11  .000000000000D+00
     .890000000000D+02  .932812500000D+02  .516557230968D-08  .160960456201D+01
     .508129596710D-05  .385244179051D-02  .134669244289D-05  .515370959854D+04
     .525600000000D+06  .111758708954D-06 -.155451474492D+01  .726431608200D-07
     .947765188121D+00  .344156250000D+03 -.726555908770D-01 -.869786230088D-08
     .925038531568D-10  .100000000000D+01  .165900000000D+04  .000000000000D+00
     .240000000000D+01  .000000000000D+00 -.102445483208D-07  .890000000000D+02
     .518406000000D+06  .400000000000D+01
16 11 10 29  2  0  0.0 -.205927528441D-03 -.204636307899D-11  .000000000000D+00
     .640000000000D+02 -.754687500000D+02  .373551274196D-08 -.312295782608D+01
    -.387802720070D-05  .613567931578D-02  .126790255308D-04  .515355171585D+04
     .525600000000D+06 -.521540641785D-07  .597607107318D+00  .558793544769D-07
     .978250020726D+00  .144656250000D+03 -.732491391664D-01 -.748745473969D-08
     .368586781690D-09  .100000000000D+01  .165900000000D+04  .000000000000D+00
     .240000000000D+01  .000000000000D+00 -.977888703346D-08  .640000000000D+02
     .518406000000D+06  .400000000000D+01
